STARLINK-1434           
1 45712U 20035BH  26068.24137979  .00054112  00000+0  20295-2 0  9995
2 45712  53.0547  22.1128 0005343  88.0400 272.1210 15.26724568319325
STARLINK-31381          
1 59469U 24068Q   26068.24556679  .00000158  00000+0  15254-4 0  9993
2 59469  43.0026  33.6651 0001347 260.9479  99.1220 15.27584318108495
